IRIDIUM 166             
1 43570U 18061B   24239.49414894  .00000445  00000+0  15190-3 0  9999
2 43570  86.4015 332.4366 0002088  91.0287 269.1148 14.34218911318846
IRIDIUM 158             
1 43571U 18061C   24239.32289807  .00000702  00000+0  24352-3 0  9992
2 43571  86.4015 332.5176 0001983  94.2269 265.9153 14.34219581318782
IRIDIUM 165             
1 43572U 18061D   24239.55757451  .00000577  00000+0  19892-3 0  9996
2 43572  86.4018 332.4535 0002049  95.7718 264.3711 14.34217587318847
IRIDIUM 155             
1 43573U 18061E   24239.51951968  .00001011  00000+0  35404-3 0  9993
2 43573  86.4010 332.3713 0001960  89.6851 270.4570 14.34217860318809
IRIDIUM 154             
1 43574U 18061F   24239.50049221  .00000374  00000+0  12662-3 0  9995
2 43574  86.4015 332.4800 0002374  95.1082 265.0385 14.34218274318850
IRIDIUM 163             
1 43575U 18061G   24239.34192728  .00000577  00000+0  19906-3 0  9992
2 43575  86.4014 332.4825 0002259  91.8468 268.2987 14.34222829318809
IRIDIUM 156             
1 43576U 18061H   24239.52586004  .00000614  00000+0  21228-3 0  9999
2 43576  86.4014 332.4121 0001947  96.8117 263.3300 14.34216610318826
IRIDIUM 164             
1 43577U 18061J   24239.50683437  .00000294  00000+0  97893-4 0  9992
2 43577  86.4014 332.4495 0002312 102.4671 257.6784 14.34218234318867
